H1 CPF 01  gfz 2022 12 31 13  8652 terrasarx 
H2 0702601  6201 31698    2022 12 31 12 59 42 2023 01 05 00 00 42   120 1 1  0 0 0
H9
10 0 59947  69102.000000  0    6445965.947  -1814296.802  -1628483.199
10 0 59947  69222.000000  0    6543340.054  -2029987.960   -737651.628
10 0 59947  69342.000000  0    6522962.272  -2210897.269    166154.163
10 0 59947  69462.000000  0    6385778.070  -2351790.649   1067035.031
10 0 59947  69582.000000  0    6134882.179  -2448173.089   1949128.755
10 0 59947  69702.000000  0    5775451.339  -2496406.761   2796898.537
10 0 59947  69822.000000  0    5314635.431  -2493811.024   3595415.299
10 0 59947  69942.000000  0    4761408.303  -2438741.610   4330626.607
10 0 59947  70062.000000  0    4126385.953  -2330647.490   4989606.056
10 0 59947  70182.000000  0    3421615.583  -2170105.364   5560782.456
10 0 59947  70302.000000  0    2660337.249  -1958829.658   6034141.147
10 0 59947  70422.000000  0    1856728.258  -1699658.012   6401394.199
10 0 59947  70542.000000  0    1025634.371  -1396514.055   6656119.731
10 0 59947  70662.000000  0     182292.365  -1054347.337   6793868.416
10 0 59947  70782.000000  0    -657950.188   -679051.299   6812235.661
10 0 59947  70902.000000  0   -1479913.107   -277361.544   6710900.145
10 0 59947  71022.000000  0   -2268856.519    143264.719   6491629.092
10 0 59947  71142.000000  0   -3010744.263    574786.429   6158249.868
10 0 59947  71262.000000  0   -3692494.497   1008731.179   5716588.066
10 0 59947  71382.000000  0   -4302214.086   1436360.013   5174372.209
10 0 59947  71502.000000  0   -4829412.231   1848842.175   4541104.516
10 0 59947  71622.000000  0   -5265188.490   2237437.002   3827899.041
10 0 59947  71742.000000  0   -5602390.841   2593678.277   3047289.320
10 0 59947  71862.000000  0   -5835740.621   2909557.265   2213009.197
10 0 59947  71982.000000  0   -5961922.369   3177700.520   1339749.561
10 0 59947  72102.000000  0   -5979634.995   3391538.271    442893.656
10 0 59947  72222.000000  0   -5889600.615   3545457.535   -461761.945
10 0 59947  72342.000000  0   -5694533.163   3634936.591  -1358294.024
10 0 59947  72462.000000  0   -5399067.676   3656658.286  -2230942.295
10 0 59947  72582.000000  0   -5009648.948   3608597.618  -3064395.210
10 0 59947  72702.000000  0   -4534385.443   3490082.345  -3844063.438
10 0 59947  72822.000000  0   -3982872.046   3301825.191  -4556335.914
10 0 59947  72942.000000  0   -3365988.375   3045928.125  -5188813.978
10 0 59947  73062.000000  0   -2695677.188   2725858.873  -5730519.259
10 0 59947  73182.000000  0   -1984709.629   2346401.823  -6172075.060
10 0 59947  73302.000000  0   -1246438.693   1913582.889  -6505858.169
10 0 59947  73422.000000  0    -494549.222   1434571.167  -6726117.958
10 0 59947  73542.000000  0     257191.887    917559.649  -6829065.259
10 0 59947  73662.000000  0     995181.122    371627.072  -6812930.532
10 0 59947  73782.000000  0    1706219.628   -193418.284  -6677992.508
10 0 59947  73902.000000  0    2377743.905   -767210.878  -6426572.438
10 0 59947  74022.000000  0    2998043.116  -1339012.928  -6062998.954
10 0 59947  74142.000000  0    3556461.171  -1897910.080  -5593540.963
10 0 59947  74262.000000  0    4043580.861  -2433015.597  -5026311.391
10 0 59947  74382.000000  0    4451387.325  -2933681.551  -4371137.782
10 0 59947  74502.000000  0    4773405.051  -3389710.599  -3639402.076
10 0 59947  74622.000000  0    5004808.103  -3791564.339  -2843852.338
10 0 59947  74742.000000  0    5142500.902  -4130565.052  -1998386.614
10 0 59947  74862.000000  0    5185165.410  -4399084.692  -1117812.076
10 0 59947  74982.000000  0    5133273.853  -4590717.333   -217584.034
10 0 59947  75102.000000  0    4989064.781  -4700430.247    686470.639
10 0 59947  75222.000000  0    4756482.973  -4724688.056   1578439.983
10 0 59947  75342.000000  0    4441084.233  -4661546.581   2442616.107
10 0 59947  75462.000000  0    4049908.333  -4510714.565   3263779.921
10 0 59947  75582.000000  0    3591323.262  -4273581.994   4027476.257
10 0 59947  75702.000000  0    3074843.718  -3953213.996   4720273.342
10 0 59947  75822.000000  0    2510929.869  -3554309.955   5330000.642
10 0 59947  75942.000000  0    1910771.808  -3083130.936   5845961.563
10 0 59947  76062.000000  0    1286063.227  -2547395.659   6259117.814
10 0 59947  76182.000000  0     648770.807  -1956149.001   6562241.454
10 0 59947  76302.000000  0      10903.400  -1319605.881   6750035.047
10 0 59947  76422.000000  0    -615713.932   -648972.574   6819218.867
10 0 59947  76542.000000  0   -1219658.028     43751.808   6768584.326
10 0 59947  76662.000000  0   -1790115.101    745989.626   6599013.719
10 0 59947  76782.000000  0   -2317073.821   1444812.379   6313465.788
10 0 59947  76902.000000  0   -2791501.513   2127177.745   5916927.382
10 0 59947  77022.000000  0   -3205500.509   2780172.953   5416332.192
10 0 59947  77142.000000  0   -3552443.083   3391260.965   4820446.012
10 0 59947  77262.000000  0   -3827081.965   3948524.143   4139719.004
10 0 59947  77382.000000  0   -4025633.680   4440901.671   3386106.948
10 0 59947  77502.000000  0   -4145832.845   4858415.267   2572863.062
10 0 59947  77622.000000  0   -4186955.347   5192376.771   1714302.849
10 0 59947  77742.000000  0   -4149809.854   5435572.539    825548.227
10 0 59947  77862.000000  0   -4036699.040   5582420.803    -77744.535
10 0 59947  77982.000000  0   -3851350.150   5629098.359   -979669.580
10 0 59947  78102.000000  0   -3598815.094   5573630.659  -1864362.339
10 0 59947  78222.000000  0   -3285343.602   5415943.023  -2716287.445
10 0 59947  78342.000000  0   -2918232.992   5157874.393  -3520517.151
10 0 59947  78462.000000  0   -2505660.508   4803151.298  -4262995.423
10 0 59947  78582.000000  0   -2056501.435   4357325.107  -4930781.605
10 0 59947  78702.000000  0   -1580138.447   3827675.868  -5512269.016
10 0 59947  78822.000000  0   -1086266.920   3223085.753  -5997378.791
10 0 59947  78942.000000  0    -584698.904   2553882.465  -6377725.289
10 0 59947  79062.000000  0     -85170.409   1831657.587  -6646749.087
10 0 59947  79182.000000  0     402843.175   1069064.883  -6799819.061
10 0 59947  79302.000000  0     870302.132    279600.761  -6834304.254
10 0 59947  79422.000000  0    1308766.261   -522630.424  -6749614.288
10 0 59947  79542.000000  0    1710543.144  -1323163.060  -6547206.816
10 0 59947  79662.000000  0    2068819.708  -2107423.892  -6230564.854
10 0 59947  79782.000000  0    2377776.626  -2860990.678  -5805143.890
10 0 59947  79902.000000  0    2632683.261  -3569854.247  -5278289.393
10 0 59947  80022.000000  0    2829972.292  -4220680.408  -4659120.264
10 0 59947  80142.000000  0    2967290.341  -4801061.936  -3958380.143
10 0 59947  80262.000000  0    3043525.214  -5299759.277  -3188262.187
10 0 59947  80382.000000  0    3058809.066  -5706927.328  -2362205.137
10 0 59947  80502.000000  0    3014496.330  -6014318.990  -1494662.237
10 0 59947  80622.000000  0    2913116.865  -6215461.563   -600848.268
10 0 59947  80742.000000  0    2758303.486  -6305800.636    303532.233
10 0 59947  80862.000000  0    2554696.064  -6282805.354   1202567.544
10 0 59947  80982.000000  0    2307825.349  -6146035.515   2080427.146
10 0 59947  81102.000000  0    2023977.956  -5897164.637   2921650.880
10 0 59947  81222.000000  0    1710046.894  -5539959.304   3711428.454
10 0 59947  81342.000000  0    1373371.343  -5080217.905   4435865.064
10 0 59947  81462.000000  0    1021570.626  -4525669.635   5082228.302
10 0 59947  81582.000000  0     662375.714  -3885836.870   5639173.231
10 0 59947  81702.000000  0     303461.514  -3171861.145   6096939.389
10 0 59947  81822.000000  0     -47714.544  -2396300.235   6447515.347
10 0 59947  81942.000000  0    -384064.910  -1572902.293   6684771.866
10 0 59947  82062.000000  0    -699012.652   -716359.959   6804563.629
10 0 59947  82182.000000  0    -986618.580    157953.321   6804798.277
10 0 59947  82302.000000  0   -1241692.534   1034259.656   6685470.651
10 0 59947  82422.000000  0   -1459886.615   1896660.839   6448662.541
10 0 59947  82542.000000  0   -1637769.451   2729426.071   6098508.838
10 0 59947  82662.000000  0   -1772880.597   3517279.461   5641129.609
10 0 59947  82782.000000  0   -1863763.513   4245682.213   5084528.884
10 0 59947  82902.000000  0   -1909977.474   4901106.142   4438461.618
10 0 59947  83022.000000  0   -1912087.554   5471292.467   3714267.461
10 0 59947  83142.000000  0   -1871632.697   5945490.004   2924674.562
10 0 59947  83262.000000  0   -1791073.211   6314666.713   2083575.768
10 0 59947  83382.000000  0   -1673717.558   6571690.795   1205781.346
10 0 59947  83502.000000  0   -1523629.677   6711475.403    306752.562
10 0 59947  83622.000000  0   -1345520.300   6731083.561   -597677.714
10 0 59947  83742.000000  0   -1144624.664   6629791.657  -1491593.501
10 0 59947  83862.000000  0    -926568.465   6409104.771  -2359287.344
10 0 59947  83982.000000  0    -697227.993   6072724.966  -3185542.737
10 0 59947  84102.000000  0    -462587.476   5626478.405  -3955903.003
10 0 59947  84222.000000  0    -228596.804   5078203.158  -4656924.201
10 0 59947  84342.000000  0      -1033.125   4437599.224  -5276406.182
10 0 59947  84462.000000  0     214630.947   3716046.125  -5803598.322
10 0 59947  84582.000000  0     413349.279   2926391.110  -6229377.095
10 0 59947  84702.000000  0     590611.216   2082713.783  -6546392.412
10 0 59947  84822.000000  0     742536.566   1200073.567  -6749182.926
10 0 59947  84942.000000  0     865954.901    294242.737  -6834260.799
10 0 59947  85062.000000  0     958467.840   -618570.957  -6800165.219
10 0 59947  85182.000000  0    1018493.490  -1522008.379  -6647483.531
10 0 59947  85302.000000  0    1045292.707  -2399843.717  -6378840.900
10 0 59947  85422.000000  0    1038977.649  -3236268.214  -5998861.803
10 0 59947  85542.000000  0    1000501.126  -4016172.553  -5514100.368
99
